HULIANWANG DIGUI-113    
1 66923U 25285J   26064.81278311 -.00000206  00000+0 -17720-3 0  9996
2 66923  50.0098 156.4190 0000086 313.5391  46.5474 13.29330732 12315
HULIANWANG DIGUI-114    
1 66953U 25287A   26064.94320076  .00000073  00000+0  13583-3 0  9994
2 66953  86.4973 317.2756 0001972  80.4612 279.6745 13.24415670 11677
HULIANWANG DIGUI-115    
1 66954U 25287B   26064.93562851  .00000070  00000+0  12857-3 0  9993
2 66954  86.4989 317.2873 0002054  79.6508 280.4858 13.24415806 11677
HULIANWANG DIGUI-116    
1 66955U 25287C   26064.92808162  .00000069  00000+0  12643-3 0  9992
2 66955  86.4928 317.2260 0002060  79.4851 280.6515 13.24415923 11679
HULIANWANG DIGUI-117    
1 66956U 25287D   26064.92056741  .00000058  00000+0  99982-4 0  9991
2 66956  86.4990 317.2806 0001230  20.9568 339.1616 13.24414057 11678
HULIANWANG DIGUI-118    
1 66957U 25287E   26064.91299590  .00000052  00000+0  87745-4 0  9990
2 66957  86.4966 317.2543 0002043  79.2122 280.9242 13.24415363 11675
HULIANWANG DIGUI-119    
1 67059U 25295A   26064.07196424 -.00000065  00000+0  10542-3 0  9997
2 67059  50.0045  40.1576 0000524 321.2380  38.8462 13.48505391 11637
HULIANWANG DIGUI-120    
1 67060U 25295B   26063.98456562 -.00000062  00000+0  10905-3 0  9990
2 67060  50.0059  40.3667 0000297 324.2577  35.8283 13.49182603 11620
HULIANWANG DIGUI-121    
1 67061U 25295C   26064.06563528 -.00000064  00000+0  10634-3 0  9993
2 67061  50.0011  40.0927 0000568 248.8697 111.2123 13.48677702 11631
HULIANWANG DIGUI-122    
1 67062U 25295D   26063.97760956 -.00000064  00000+0  10628-3 0  9990
2 67062  50.0051  40.3237 0000582 280.5569  79.5246 13.49131474 11623
HULIANWANG DIGUI-123    
1 67063U 25295E   26064.04460001 -.00000046  00000+0  13558-3 0  9993
2 67063  50.0044  40.0181 0000827 302.5802  57.4999 13.49170834 11632
HULIANWANG DIGUI-124    
1 67064U 25295F   26064.33469220 -.00000063  00000+0  10852-3 0  9991
2 67064  49.9659  38.8537 0003802 208.1973 151.8702 13.48752611 11671
HULIANWANG DIGUI-125    
1 67065U 25295G   26064.69852104 -.00000065  00000+0  10509-3 0  9999
2 67065  49.9968  37.4377 0002416  83.0342 277.0814 13.48906062 11724
HULIANWANG DIGUI-126    
1 67066U 25295H   26064.69129880 -.00000087  00000+0  69783-4 0  9991
2 67066  49.9978  37.4022 0002733  88.0846 272.0348 13.48895905 11729
HULIANWANG DIGUI-127    
1 67067U 25295J   26064.68092374 -.00000316  00000+0 -29580-3 0  9994
2 67067  50.0007  37.3603 0001661  74.0158 286.0906 13.48741481 11724
HULIANWANG DIGUI-128    
1 67236U 25311A   26064.21913251 -.00000041  00000+0  17002-3 0  9996
2 67236  50.0169 128.4499 0002072 317.1696  42.9017 13.33529008  9510
