[{"OBJECT_NAME":"HULIANWANG DIGUI-113","OBJECT_ID":"2025-285J","EPOCH":"2026-03-05T19:30:24.460704","MEAN_MOTION":13.29330732,"ECCENTRICITY":8.65e-6,"INCLINATION":50.0098,"RA_OF_ASC_NODE":156.419,"ARG_OF_PERICENTER":313.5391,"MEAN_ANOMALY":46.5474,"EPHEMERIS_TYPE":0,"CLASSIFICATION_TYPE":"U","NORAD_CAT_ID":66923,"ELEMENT_SET_NO":999,"REV_AT_EPOCH":1231,"BSTAR":-0.00017719982,"MEAN_MOTION_DOT":-2.06e-6,"MEAN_MOTION_DDOT":0},{"OBJECT_NAME":"HULIANWANG DIGUI-114","OBJECT_ID":"2025-287A","EPOCH":"2026-03-05T22:38:12.545664","MEAN_MOTION":13.2441567,"ECCENTRICITY":0.00019728,"INCLINATION":86.4973,"RA_OF_ASC_NODE":317.2756,"ARG_OF_PERICENTER":80.4612,"MEAN_ANOMALY":279.6745,"EPHEMERIS_TYPE":0,"CLASSIFICATION_TYPE":"U","NORAD_CAT_ID":66953,"ELEMENT_SET_NO":999,"REV_AT_EPOCH":1167,"BSTAR":0.00013583273,"MEAN_MOTION_DOT":7.3e-7,"MEAN_MOTION_DDOT":0},{"OBJECT_NAME":"HULIANWANG DIGUI-115","OBJECT_ID":"2025-287B","EPOCH":"2026-03-05T22:27:18.303264","MEAN_MOTION":13.24415806,"ECCENTRICITY":0.00020549,"INCLINATION":86.4989,"RA_OF_ASC_NODE":317.2873,"ARG_OF_PERICENTER":79.6508,"MEAN_ANOMALY":280.4858,"EPHEMERIS_TYPE":0,"CLASSIFICATION_TYPE":"U","NORAD_CAT_ID":66954,"ELEMENT_SET_NO":999,"REV_AT_EPOCH":1167,"BSTAR":0.00012856575,"MEAN_MOTION_DOT":7.0e-7,"MEAN_MOTION_DDOT":0},{"OBJECT_NAME":"HULIANWANG DIGUI-116","OBJECT_ID":"2025-287C","EPOCH":"2026-03-05T22:16:26.251968","MEAN_MOTION":13.24415923,"ECCENTRICITY":0.00020605,"INCLINATION":86.4928,"RA_OF_ASC_NODE":317.226,"ARG_OF_PERICENTER":79.4851,"MEAN_ANOMALY":280.6515,"EPHEMERIS_TYPE":0,"CLASSIFICATION_TYPE":"U","NORAD_CAT_ID":66955,"ELEMENT_SET_NO":999,"REV_AT_EPOCH":1167,"BSTAR":0.0001264276,"MEAN_MOTION_DOT":6.9e-7,"MEAN_MOTION_DDOT":0},{"OBJECT_NAME":"HULIANWANG DIGUI-117","OBJECT_ID":"2025-287D","EPOCH":"2026-03-05T22:05:37.024224","MEAN_MOTION":13.24414057,"ECCENTRICITY":0.00012304,"INCLINATION":86.499,"RA_OF_ASC_NODE":317.2806,"ARG_OF_PERICENTER":20.9568,"MEAN_ANOMALY":339.1616,"EPHEMERIS_TYPE":0,"CLASSIFICATION_TYPE":"U","NORAD_CAT_ID":66956,"ELEMENT_SET_NO":999,"REV_AT_EPOCH":1167,"BSTAR":9.9982433e-5,"MEAN_MOTION_DOT":5.8e-7,"MEAN_MOTION_DDOT":0},{"OBJECT_NAME":"HULIANWANG DIGUI-118","OBJECT_ID":"2025-287E","EPOCH":"2026-03-05T21:54:42.845760","MEAN_MOTION":13.24415363,"ECCENTRICITY":0.00020436,"INCLINATION":86.4966,"RA_OF_ASC_NODE":317.2543,"ARG_OF_PERICENTER":79.2122,"MEAN_ANOMALY":280.9242,"EPHEMERIS_TYPE":0,"CLASSIFICATION_TYPE":"U","NORAD_CAT_ID":66957,"ELEMENT_SET_NO":999,"REV_AT_EPOCH":1167,"BSTAR":8.7745261e-5,"MEAN_MOTION_DOT":5.2e-7,"MEAN_MOTION_DDOT":0},{"OBJECT_NAME":"HULIANWANG DIGUI-119","OBJECT_ID":"2025-295A","EPOCH":"2026-03-05T01:43:37.710336","MEAN_MOTION":13.48505391,"ECCENTRICITY":5.248e-5,"INCLINATION":50.0045,"RA_OF_ASC_NODE":40.1576,"ARG_OF_PERICENTER":321.238,"MEAN_ANOMALY":38.8462,"EPHEMERIS_TYPE":0,"CLASSIFICATION_TYPE":"U","NORAD_CAT_ID":67059,"ELEMENT_SET_NO":999,"REV_AT_EPOCH":1163,"BSTAR":0.000105424,"MEAN_MOTION_DOT":-6.5e-7,"MEAN_MOTION_DDOT":0},{"OBJECT_NAME":"HULIANWANG DIGUI-120","OBJECT_ID":"2025-295B","EPOCH":"2026-03-04T23:37:46.469568","MEAN_MOTION":13.49182603,"ECCENTRICITY":2.974e-5,"INCLINATION":50.0059,"RA_OF_ASC_NODE":40.3667,"ARG_OF_PERICENTER":324.2577,"MEAN_ANOMALY":35.8283,"EPHEMERIS_TYPE":0,"CLASSIFICATION_TYPE":"U","NORAD_CAT_ID":67060,"ELEMENT_SET_NO":999,"REV_AT_EPOCH":1162,"BSTAR":0.00010904802,"MEAN_MOTION_DOT":-6.2e-7,"MEAN_MOTION_DDOT":0},{"OBJECT_NAME":"HULIANWANG DIGUI-121","OBJECT_ID":"2025-295C","EPOCH":"2026-03-05T01:34:30.888192","MEAN_MOTION":13.48677702,"ECCENTRICITY":5.68e-5,"INCLINATION":50.0011,"RA_OF_ASC_NODE":40.0927,"ARG_OF_PERICENTER":248.8697,"MEAN_ANOMALY":111.2123,"EPHEMERIS_TYPE":0,"CLASSIFICATION_TYPE":"U","NORAD_CAT_ID":67061,"ELEMENT_SET_NO":999,"REV_AT_EPOCH":1163,"BSTAR":0.00010633579,"MEAN_MOTION_DOT":-6.4e-7,"MEAN_MOTION_DDOT":0},{"OBJECT_NAME":"HULIANWANG DIGUI-122","OBJECT_ID":"2025-295D","EPOCH":"2026-03-04T23:27:45.465984","MEAN_MOTION":13.49131474,"ECCENTRICITY":5.827e-5,"INCLINATION":50.0051,"RA_OF_ASC_NODE":40.3237,"ARG_OF_PERICENTER":280.5569,"MEAN_ANOMALY":79.5246,"EPHEMERIS_TYPE":0,"CLASSIFICATION_TYPE":"U","NORAD_CAT_ID":67062,"ELEMENT_SET_NO":999,"REV_AT_EPOCH":1162,"BSTAR":0.00010627596,"MEAN_MOTION_DOT":-6.4e-7,"MEAN_MOTION_DDOT":0},{"OBJECT_NAME":"HULIANWANG DIGUI-123","OBJECT_ID":"2025-295E","EPOCH":"2026-03-05T01:04:13.440864","MEAN_MOTION":13.49170834,"ECCENTRICITY":8.274e-5,"INCLINATION":50.0044,"RA_OF_ASC_NODE":40.0181,"ARG_OF_PERICENTER":302.5802,"MEAN_ANOMALY":57.4999,"EPHEMERIS_TYPE":0,"CLASSIFICATION_TYPE":"U","NORAD_CAT_ID":67063,"ELEMENT_SET_NO":999,"REV_AT_EPOCH":1163,"BSTAR":0.00013557818,"MEAN_MOTION_DOT":-4.6e-7,"MEAN_MOTION_DDOT":0},{"OBJECT_NAME":"HULIANWANG DIGUI-124","OBJECT_ID":"2025-295F","EPOCH":"2026-03-05T08:01:57.406080","MEAN_MOTION":13.48752611,"ECCENTRICITY":0.00038025,"INCLINATION":49.9659,"RA_OF_ASC_NODE":38.8537,"ARG_OF_PERICENTER":208.1973,"MEAN_ANOMALY":151.8702,"EPHEMERIS_TYPE":0,"CLASSIFICATION_TYPE":"U","NORAD_CAT_ID":67064,"ELEMENT_SET_NO":999,"REV_AT_EPOCH":1167,"BSTAR":0.00010851932,"MEAN_MOTION_DOT":-6.3e-7,"MEAN_MOTION_DDOT":0},{"OBJECT_NAME":"HULIANWANG DIGUI-125","OBJECT_ID":"2025-295G","EPOCH":"2026-03-05T16:45:52.217856","MEAN_MOTION":13.48906062,"ECCENTRICITY":0.00024167,"INCLINATION":49.9968,"RA_OF_ASC_NODE":37.4377,"ARG_OF_PERICENTER":83.0342,"MEAN_ANOMALY":277.0814,"EPHEMERIS_TYPE":0,"CLASSIFICATION_TYPE":"U","NORAD_CAT_ID":67065,"ELEMENT_SET_NO":999,"REV_AT_EPOCH":1172,"BSTAR":0.00010508837,"MEAN_MOTION_DOT":-6.5e-7,"MEAN_MOTION_DDOT":0},{"OBJECT_NAME":"HULIANWANG DIGUI-126","OBJECT_ID":"2025-295H","EPOCH":"2026-03-05T16:35:28.216320","MEAN_MOTION":13.48895905,"ECCENTRICITY":0.0002733,"INCLINATION":49.9978,"RA_OF_ASC_NODE":37.4022,"ARG_OF_PERICENTER":88.0846,"MEAN_ANOMALY":272.0348,"EPHEMERIS_TYPE":0,"CLASSIFICATION_TYPE":"U","NORAD_CAT_ID":67066,"ELEMENT_SET_NO":999,"REV_AT_EPOCH":1172,"BSTAR":6.9783045e-5,"MEAN_MOTION_DOT":-8.7e-7,"MEAN_MOTION_DDOT":0},{"OBJECT_NAME":"HULIANWANG DIGUI-127","OBJECT_ID":"2025-295J","EPOCH":"2026-03-05T16:20:31.811136","MEAN_MOTION":13.48741481,"ECCENTRICITY":0.00016614,"INCLINATION":50.0007,"RA_OF_ASC_NODE":37.3603,"ARG_OF_PERICENTER":74.0158,"MEAN_ANOMALY":286.0906,"EPHEMERIS_TYPE":0,"CLASSIFICATION_TYPE":"U","NORAD_CAT_ID":67067,"ELEMENT_SET_NO":999,"REV_AT_EPOCH":1172,"BSTAR":-0.00029579974,"MEAN_MOTION_DOT":-3.16e-6,"MEAN_MOTION_DDOT":0},{"OBJECT_NAME":"HULIANWANG DIGUI-128","OBJECT_ID":"2025-311A","EPOCH":"2026-03-05T05:15:33.048864","MEAN_MOTION":13.33529008,"ECCENTRICITY":0.00020727,"INCLINATION":50.0169,"RA_OF_ASC_NODE":128.4499,"ARG_OF_PERICENTER":317.1696,"MEAN_ANOMALY":42.9017,"EPHEMERIS_TYPE":0,"CLASSIFICATION_TYPE":"U","NORAD_CAT_ID":67236,"ELEMENT_SET_NO":999,"REV_AT_EPOCH":951,"BSTAR":0.00017001548,"MEAN_MOTION_DOT":-4.1e-7,"MEAN_MOTION_DDOT":0}]
